[
  {
    "zip": "83843",
    "group": "Latah Group",
    "team": "Boise Team",
    "groupId": "4",
    "TeamLeaderEmail": "alicia.hollinger@robertslack.com",
    "lat": 46.7309,
    "lng": -116.9897
  },
  {
    "zip": "83844",
    "group": "Latah Group",
    "team": "Boise Team",
    "groupId": "4",
    "TeamLeaderEmail": "alicia.hollinger@robertslack.com",
    "lat": 46.8363,
    "lng": -116.6846
  },
  {
    "zip": "83669",
    "group": "Ada Group",
    "team": "Boise Team",
    "groupId": "9",
    "TeamLeaderEmail": "alicia.hollinger@robertslack.com",
    "lat": 43.7013,
    "lng": -116.4967
  },
  {
    "zip": "83686",
    "group": "Canyon Group",
    "team": "Boise Team",
    "groupId": "11",
    "TeamLeaderEmail": "alicia.hollinger@robertslack.com",
    "lat": 43.5441,
    "lng": -116.566
  },
  {
    "zip": "83605",
    "group": "Canyon Group",
    "team": "Boise Team",
    "groupId": "11",
    "TeamLeaderEmail": "alicia.hollinger@robertslack.com",
    "lat": 43.6627,
    "lng": -116.7
  },
  {
    "zip": "83714",
    "group": "Ada Group",
    "team": "Boise Team",
    "groupId": "9",
    "TeamLeaderEmail": "alicia.hollinger@robertslack.com",
    "lat": 43.7318,
    "lng": -116.2797
  },
  {
    "zip": "83708",
    "group": "Ada Group",
    "team": "Boise Team",
    "groupId": "9",
    "TeamLeaderEmail": "alicia.hollinger@robertslack.com",
    "lat": 43.4599,
    "lng": -116.244
  },
  {
    "zip": "83709",
    "group": "Ada Group",
    "team": "Boise Team",
    "groupId": "9",
    "TeamLeaderEmail": "alicia.hollinger@robertslack.com",
    "lat": 43.5741,
    "lng": -116.2941
  },
  {
    "zip": "83716",
    "group": "Elmore Group",
    "team": "Boise Team",
    "groupId": "15",
    "TeamLeaderEmail": "alicia.hollinger@robertslack.com",
    "lat": 43.5345,
    "lng": -115.9711
  },
  {
    "zip": "83712",
    "group": "Ada Group",
    "team": "Boise Team",
    "groupId": "9",
    "TeamLeaderEmail": "alicia.hollinger@robertslack.com",
    "lat": 43.6023,
    "lng": -116.1649
  },
  {
    "zip": "83705",
    "group": "Ada Group",
    "team": "Boise Team",
    "groupId": "9",
    "TeamLeaderEmail": "alicia.hollinger@robertslack.com",
    "lat": 43.5851,
    "lng": -116.2191
  },
  {
    "zip": "83642",
    "group": "Ada Group",
    "team": "Boise Team",
    "groupId": "9",
    "TeamLeaderEmail": "alicia.hollinger@robertslack.com",
    "lat": 43.615,
    "lng": -116.3975
  },
  {
    "zip": "83713",
    "group": "Ada Group",
    "team": "Boise Team",
    "groupId": "9",
    "TeamLeaderEmail": "alicia.hollinger@robertslack.com",
    "lat": 43.634,
    "lng": -116.3419
  },
  {
    "zip": "83616",
    "group": "Ada Group",
    "team": "Boise Team",
    "groupId": "9",
    "TeamLeaderEmail": "alicia.hollinger@robertslack.com",
    "lat": 43.7069,
    "lng": -116.362
  },
  {
    "zip": "83646",
    "group": "Ada Group",
    "team": "Boise Team",
    "groupId": "9",
    "TeamLeaderEmail": "alicia.hollinger@robertslack.com",
    "lat": 43.6498,
    "lng": -116.4306
  },
  {
    "zip": "83704",
    "group": "Ada Group",
    "team": "Boise Team",
    "groupId": "9",
    "TeamLeaderEmail": "alicia.hollinger@robertslack.com",
    "lat": 43.633,
    "lng": -116.2951
  },
  {
    "zip": "83687",
    "group": "Canyon Group",
    "team": "Boise Team",
    "groupId": "11",
    "TeamLeaderEmail": "alicia.hollinger@robertslack.com",
    "lat": 43.5937,
    "lng": -116.536
  },
  {
    "zip": "83607",
    "group": "Canyon Group",
    "team": "Boise Team",
    "groupId": "11",
    "TeamLeaderEmail": "alicia.hollinger@robertslack.com",
    "lat": 43.6186,
    "lng": -116.7501
  },
  {
    "zip": "83634",
    "group": "Ada Group",
    "team": "Boise Team",
    "groupId": "9",
    "TeamLeaderEmail": "alicia.hollinger@robertslack.com",
    "lat": 43.487,
    "lng": -116.3819
  },
  {
    "zip": "83703",
    "group": "Ada Group",
    "team": "Boise Team",
    "groupId": "9",
    "TeamLeaderEmail": "alicia.hollinger@robertslack.com",
    "lat": 43.6601,
    "lng": -116.2524
  },
  {
    "zip": "83651",
    "group": "Canyon Group",
    "team": "Boise Team",
    "groupId": "11",
    "TeamLeaderEmail": "alicia.hollinger@robertslack.com",
    "lat": 43.5834,
    "lng": -116.5848
  },
  {
    "zip": "83537",
    "group": "Latah Group",
    "team": "Boise Team",
    "groupId": "4",
    "TeamLeaderEmail": "alicia.hollinger@robertslack.com",
    "lat": 46.6286,
    "lng": -116.6049
  },
  {
    "zip": "83644",
    "group": "Canyon Group",
    "team": "Boise Team",
    "groupId": "11",
    "TeamLeaderEmail": "alicia.hollinger@robertslack.com",
    "lat": 43.7191,
    "lng": -116.6112
  },
  {
    "zip": "83647",
    "group": "Elmore Group",
    "team": "Boise Team",
    "groupId": "15",
    "TeamLeaderEmail": "alicia.hollinger@robertslack.com",
    "lat": 43.1392,
    "lng": -115.6963
  },
  {
    "zip": "83622",
    "group": "Boise Group",
    "team": "Boise Team",
    "groupId": "18",
    "TeamLeaderEmail": "alicia.hollinger@robertslack.com",
    "lat": 44.0909,
    "lng": -115.8243
  },
  {
    "zip": "83619",
    "group": "Payette Group",
    "team": "Boise Team",
    "groupId": "21",
    "TeamLeaderEmail": "alicia.hollinger@robertslack.com",
    "lat": 44.0027,
    "lng": -116.9143
  },
  {
    "zip": "83660",
    "group": "Canyon Group",
    "team": "Boise Team",
    "groupId": "11",
    "TeamLeaderEmail": "alicia.hollinger@robertslack.com",
    "lat": 43.7896,
    "lng": -116.9401
  },
  {
    "zip": "83629",
    "group": "Boise Group",
    "team": "Boise Team",
    "groupId": "18",
    "TeamLeaderEmail": "alicia.hollinger@robertslack.com",
    "lat": 43.9229,
    "lng": -116.1809
  },
  {
    "zip": "83655",
    "group": "Payette Group",
    "team": "Boise Team",
    "groupId": "21",
    "TeamLeaderEmail": "alicia.hollinger@robertslack.com",
    "lat": 43.959,
    "lng": -116.8048
  },
  {
    "zip": "83624",
    "group": "Owyhee Group",
    "team": "Boise Team",
    "groupId": "23",
    "TeamLeaderEmail": "alicia.hollinger@robertslack.com",
    "lat": 43.3006,
    "lng": -116.5103
  },
  {
    "zip": "83656",
    "group": "Canyon Group",
    "team": "Boise Team",
    "groupId": "11",
    "TeamLeaderEmail": "alicia.hollinger@robertslack.com",
    "lat": 43.7259,
    "lng": -116.7997
  },
  {
    "zip": "83676",
    "group": "Canyon Group",
    "team": "Boise Team",
    "groupId": "11",
    "TeamLeaderEmail": "alicia.hollinger@robertslack.com",
    "lat": 43.6579,
    "lng": -116.9122
  }
]
